sat04852
1 04852U 70025EG  20046.42635271  .00002197  00000-0  30359-3 0  9997
2 04852  99.6855 227.3911 0015480 252.3504 107.6011 14.79417489565047
